{
  "contacts": [
    {
      "contactId": "1",
      "phone": "+491713578905",
      "first": "Inge",
      "last": "Klein",
      "addresses": [
        {
          "street": "",
          "number": "",
          "zipCode": "",
          "city": "",
          "addressType": "PRIVATE"
        },
        {
          "street": "Hauptstrasse",
          "number": "498",
          "zipCode": "62598",
          "city": "Frankfurt",
          "addressType": "Business"
        }
      ],
      "image": "https://raw.githubusercontent.com/SylviaGonschior/SmartAddress01/master/src/pics/avatar_3.png"
    },
    {
      "contactId": "2",
      "phone": "+495164123456",
      "first": "Knut",
      "last": "Larson",
      "addresses": [
        {
          "street": "Bahnhofstrasse",
          "number": "5",
          "zipCode": "64295",
          "city": "Darmstadt",
          "addressType": "PRIVATE"
        },
        {
          "street": "Hauptstrasse",
          "number": "498",
          "zipCode": "62598",
          "city": "Frankfurt",
          "addressType": "Business"
        }
      ],
      "image": "https://raw.githubusercontent.com/SylviaGonschior/SmartAddress01/master/src/pics/avatar_1.png"
    },
    {
      "contactId": "3",
      "phone": "+49221641239098",
      "first": "Tom",
      "last": "Assmann",
      "addresses": [
        {
          "street": "Hauptstrasse",
          "number": "160",
          "zipCode": "64625",
          "city": "Bensheim"
        },
        {
          "street": "Hauptstrasse",
          "number": "498",
          "zipCode": "62598",
          "city": "Frankfurt",
          "addressType": "Business"
        }
      ],
      "image": "https://raw.githubusercontent.com/SylviaGonschior/SmartAddress01/master/src/pics/avatar_6.png"
    },
    {

      "contactId": "4",

      "phone": "+49233452881",
      "first": "Heidi",
      "last": "Zahn",
      "addresses": [
        {
          "street": "Alte Heerstrasse",
          "number": "24",
          "zipCode": "58119",
          "city": "Hagen"
        },
        {
          "street": "Hauptstrasse",
          "number": "498",
          "zipCode": "62598",
          "city": "Frankfurt",
          "addressType": "Business"
        }
      ],
      "image": "https://raw.githubusercontent.com/SylviaGonschior/SmartAddress01/master/src/pics/avatar_3.png"
    },
    {

      "contactId": "5",
      "phone": "+496336175884",
      "first": "Pia",
      "last": "Champion",
      "addresses": [
        {
          "street": "Margaritten Weg",
          "number": "168 a ",
          "zipCode": "64572",
          "city": "Büttelborn"
        },
        {
          "street": "Hauptstrasse",
          "number": "498",
          "zipCode": "62598",
          "city": "Frankfurt",
          "addressType": "Business"
        }
      ],
      "image": "https://raw.githubusercontent.com/SylviaGonschior/SmartAddress01/feature/picView/src/pics/avatar_4.png"
    },
    {

      "contactId": "6",

      "phone": "+496336175884",
      "first": "Sandrine",
      "last": "Champion",
      "addresses": [
        {
          "street": "Margaritten Weg",
          "number": "168 a ",
          "zipCode": "64572",
          "city": "Büttelborn"
        },
        {
          "street": "Hauptstrasse",
          "number": "498",
          "zipCode": "62598",
          "city": "Frankfurt",
          "addressType": "Business"
        }
      ],
      "image": "https://raw.githubusercontent.com/SylviaGonschior/SmartAddress01/feature/picView/src/pics/avatar_4.png"
    }
  ]
}